[{"OBJECT_NAME":"GCOM-W1 (SHIZUKU)","OBJECT_ID":"2012-025A","EPOCH":"2026-03-09T21:00:27.789696","MEAN_MOTION":14.57098932,"ECCENTRICITY":0.00014794,"INCLINATION":98.2054,"RA_OF_ASC_NODE":10.9333,"ARG_OF_PERICENTER":74.2866,"MEAN_ANOMALY":352.8435,"EPHEMERIS_TYPE":0,"CLASSIFICATION_TYPE":"U","NORAD_CAT_ID":38337,"ELEMENT_SET_NO":999,"REV_AT_EPOCH":73457,"BSTAR":0.00019640051,"MEAN_MOTION_DOT":8.39e-6,"MEAN_MOTION_DDOT":0},{"OBJECT_NAME":"DELTA 1 DEB","OBJECT_ID":"1978-026HS","EPOCH":"2026-03-09T07:11:39.255360","MEAN_MOTION":14.44094867,"ECCENTRICITY":0.00583227,"INCLINATION":98.5938,"RA_OF_ASC_NODE":91.0921,"ARG_OF_PERICENTER":281.8249,"MEAN_ANOMALY":140.5624,"EPHEMERIS_TYPE":0,"CLASSIFICATION_TYPE":"U","NORAD_CAT_ID":20029,"ELEMENT_SET_NO":999,"REV_AT_EPOCH":92691,"BSTAR":0.00041682677,"MEAN_MOTION_DOT":1.41e-5,"MEAN_MOTION_DDOT":0}]
